NORAD_CAT_ID,OBJECT_NAME,OBJECT_TYPE,EPOCH,MEAN_MOTION,ECCENTRICITY,INCLINATION,RA_OF_ASC_NODE,ARG_OF_PERICENTER,MEAN_ANOMALY,BSTAR,MEAN_MOTION_DOT,MEAN_MOTION_DDOT,TLE_LINE0,TLE_LINE1,TLE_LINE2,SEMIMAJOR_AXIS,PERIOD,APOGEE,PERIGEE,DECAYED
54172.0,STARLINK-5117,PAYLOAD,2024-05-29 20:08:40,15.0883753,0.000127,53.2184,36.8925,105.3371,254.7762,5.0631e-05,5.18e-06,0.0,0 STARLINK-5117,1 54172U 22141R   24150.83936320  .00000518  00000-0  50631-4 0  9998,2 54172  53.2184  36.8925 0001270 105.3371 254.7762 15.08837530 87904,6917.888,95.438,540.632,538.874,0.0
54172.0,STARLINK-5117,PAYLOAD,2024-05-29 21:44:04,15.08837526,0.0001271,53.2184,36.5951,105.6623,254.4509,4.844e-05,4.83e-06,0.0,0 STARLINK-5117,1 54172U 22141R   24150.90560324  .00000483  00000-0  48440-4 0  9999,2 54172  53.2184  36.5951 0001271 105.6623 254.4509 15.08837526 87916,6917.888,95.438,540.632,538.874,0.0
54172.0,STARLINK-5117,PAYLOAD,2024-05-29 23:19:27,15.08837325,0.0001243,53.2186,36.2978,97.4817,262.6317,4.2274e-05,3.85e-06,0.0,0 STARLINK-5117,1 54172U 22141R   24150.97184401  .00000385  00000-0  42274-4 0  9994,2 54172  53.2186  36.2978 0001243  97.4817 262.6317 15.08837325 87922,6917.889,95.438,540.613,538.894,0.0
54172.0,STARLINK-5117,PAYLOAD,2024-05-30 21:34:51,15.08833029,0.0001291,53.2186,32.1349,110.5653,249.5477,1.3368e-06,-2.67e-06,0.0,0 STARLINK-5117,1 54172U 22141R   24151.89920969 -.00000267  00000-0  13368-5 0  9996,2 54172  53.2186  32.1349 0001291 110.5653 249.5477 15.08833029 88061,6917.902,95.438,540.66,538.874,0.0
54172.0,STARLINK-5117,PAYLOAD,2024-05-31 00:45:37,15.08833748,0.0001286,53.2186,31.5403,109.4465,250.6666,5.9794e-06,-1.93e-06,0.0,0 STARLINK-5117,1 54172U 22141R   24152.03168961 -.00000193  00000-0  59794-5 0  9990,2 54172  53.2186  31.5403 0001286 109.4465 250.6666 15.08833748 88080,6917.899,95.438,540.654,538.875,0.0
54172.0,STARLINK-5117,PAYLOAD,2024-05-31 00:45:38,15.08832811,0.0001263,53.2185,31.5402,109.9809,250.1319,8.3898e-06,-1.54e-06,0.0,0 STARLINK-5117,1 54172U 22141R   24152.03168997 -.00000154  00000-0  83898-5 0  9998,2 54172  53.2185  31.5402 0001263 109.9809 250.1319 15.08832811 88080,6917.902,95.438,540.641,538.894,0.0
54172.0,STARLINK-5117,PAYLOAD,2024-05-31 21:25:38,15.08834712,0.0001523,53.2193,27.6784,92.2424,267.8742,2.6014e-05,1.26e-06,0.0,0 STARLINK-5117,1 54172U 22141R   24152.89281194  .00000126  00000-0  26014-4 0  9991,2 54172  53.2193  27.6784 0001523  92.2424 267.8742 15.08834712 88216,6917.897,95.438,540.815,538.708,0.0
54172.0,STARLINK-5117,PAYLOAD,2024-06-01 02:11:48,15.08836644,0.000162,53.2189,26.7829,79.4068,280.7107,1.4494e-05,-5.7e-07,0.0,0 STARLINK-5117,1 54172U 22141R   24153.09153216 -.00000057  00000-0  14494-4 0  9990,2 54172  53.2189  26.7829 0001620  79.4068 280.7107 15.08836644 88248,6917.891,95.438,540.876,538.635,0.0
54172.0,STARLINK-5117,PAYLOAD,2024-06-01 08:33:19,15.08851519,0.0001421,53.2189,25.5942,77.8361,282.279,8.4732e-05,1.061e-05,0.0,0 STARLINK-5117,1 54172U 22141R   24153.35647870  .00001061  00000-0  84732-4 0  9990,2 54172  53.2189  25.5942 0001421  77.8361 282.2790 15.08851519 88285,6917.845,95.437,540.693,538.727,0.0
54172.0,STARLINK-5117,PAYLOAD,2024-06-01 21:16:26,15.08830085,0.0001396,53.2192,23.2161,87.1932,272.922,5.5092e-05,5.89e-06,0.0,0 STARLINK-5117,1 54172U 22141R   24153.88641561  .00000589  00000-0  55092-4 0  9990,2 54172  53.2192  23.2161 0001396  87.1932 272.9220 15.08830085 88364,6917.911,95.438,540.741,538.81,0.0
54172.0,STARLINK-5117,PAYLOAD,2024-06-02 08:24:07,15.08841779,0.0001474,53.2185,21.1354,88.7678,271.3483,5.1455e-05,5.31e-06,0.0,0 STARLINK-5117,1 54172U 22141R   24154.35008992  .00000531  00000-0  51455-4 0  9994,2 54172  53.2185  21.1354 0001474  88.7678 271.3483 15.08841779 88432,6917.875,95.437,540.76,538.72,0.0
54172.0,STARLINK-5117,PAYLOAD,2024-06-02 14:45:40,15.08837933,0.0001553,53.2185,19.9464,87.4351,272.6819,9.6491e-05,1.248e-05,0.0,0 STARLINK-5117,1 54172U 22141R   24154.61505187  .00001248  00000-0  96491-4 0  9996,2 54172  53.2185  19.9464 0001553  87.4351 272.6819 15.08837933 88479,6917.887,95.438,540.826,538.677,0.0
54172.0,STARLINK-5117,PAYLOAD,2024-06-02 21:07:13,15.08835618,0.0001386,53.2177,18.7562,88.3453,271.7698,6.1911e-05,6.97e-06,0.0,0 STARLINK-5117,1 54172U 22141R   24154.88001441  .00000697  00000-0  61911-4 0  9995,2 54172  53.2177  18.7562 0001386  88.3453 271.7698 15.08835618 88511,6917.894,95.438,540.718,538.8,0.0
54172.0,STARLINK-5117,PAYLOAD,2024-06-03 08:14:54,15.08848456,0.0001258,53.218,16.6743,91.2014,268.9123,7.8946e-05,9.69e-06,0.0,0 STARLINK-5117,1 54172U 22141R   24155.34368541  .00000969  00000-0  78946-4 0  9992,2 54172  53.2180  16.6743 0001258  91.2014 268.9123 15.08848456 88589,6917.855,95.437,540.59,538.849,0.0
54172.0,STARLINK-5117,PAYLOAD,2024-06-03 20:57:59,15.08839463,0.0001234,53.2185,14.2957,87.2876,272.8258,0.00012724,1.738e-05,0.0,0 STARLINK-5117,1 54172U 22141R   24155.87360925  .00001738  00000-0  12724-3 0  9994,2 54172  53.2185  14.2957 0001234  87.2876 272.8258 15.08839463 88660,6917.882,95.438,540.601,538.893,0.0
54172.0,STARLINK-5117,PAYLOAD,2024-06-04 08:05:41,15.08848165,0.0001412,53.2186,12.2099,99.0962,261.019,8.6929e-05,1.096e-05,0.0,0 STARLINK-5117,1 54172U 22141R   24156.33728317  .00001096  00000-0  86929-4 0  9995,2 54172  53.2186  12.2099 0001412  99.0962 261.0190 15.08848165 88733,6917.855,95.437,540.697,538.744,0.0
54172.0,STARLINK-5117,PAYLOAD,2024-06-04 20:48:46,15.08842771,0.000165,53.2146,9.8328,90.773,269.3452,9.943e-05,1.295e-05,0.0,0 STARLINK-5117,1 54172U 22141R   24156.86720586  .00001295  00000-0  99430-4 0  9995,2 54172  53.2146   9.8328 0001650  90.7730 269.3452 15.08842771 88819,6917.872,95.437,540.878,538.595,0.0
54172.0,STARLINK-5117,PAYLOAD,2024-06-04 23:59:32,15.08841726,0.0001619,53.2206,9.2383,102.92,257.1973,7.635e-05,9.27e-06,0.0,0 STARLINK-5117,1 54172U 22141R   24156.99968689  .00000927  00000-0  76350-4 0  9994,2 54172  53.2206   9.2383 0001619 102.9200 257.1973 15.08841726 88838,6917.875,95.437,540.86,538.62,0.0
54172.0,STARLINK-5117,PAYLOAD,2024-06-05 20:39:33,15.08840168,0.0001628,53.2187,5.3709,94.1389,265.9789,-1.3495e-05,-5.03e-06,0.0,0 STARLINK-5117,1 54172U 22141R   24157.86080956 -.00000503  00000-0 -13495-4 0  9996,2 54172  53.2187   5.3709 0001628  94.1389 265.9789 15.08840168 88960,6917.88,95.438,540.871,538.619,0.0
54172.0,STARLINK-5117,PAYLOAD,2024-06-06 23:41:07,15.08835098,0.0002145,53.2198,0.3176,89.9878,270.136,-3.5015e-05,-8.45e-06,0.0,0 STARLINK-5117,1 54172U 22141R   24158.98689683 -.00000845  00000-0 -35015-4 0  9993,2 54172  53.2198   0.3176 0002145  89.9878 270.1360 15.08835098 89134,6917.895,95.438,541.244,538.276,0.0
54172.0,STARLINK-5117,PAYLOAD,2024-06-07 20:21:07,15.08850961,5.14e-05,53.2155,356.452,319.0895,41.0059,0.00014191,1.972e-05,0.0,0 STARLINK-5117,1 54172U 22141R   24159.84800490  .00001972  00000-0  14191-3 0  9991,2 54172  53.2155 356.4520 0000514 319.0895  41.0059 15.08850961 89269,6917.847,95.437,540.067,539.356,0.0
54172.0,STARLINK-5117,PAYLOAD,2024-06-07 21:56:32,15.08829688,0.0001227,53.2193,356.155,87.079,273.0343,3.5071e-05,2.7e-06,0.0,0 STARLINK-5117,1 54172U 22141R   24159.91426070  .00000270  00000-0  35071-4 0  9998,2 54172  53.2193 356.1550 0001227  87.0790 273.0343 15.08829688 89275,6917.912,95.438,540.626,538.928,0.0
54172.0,STARLINK-5117,PAYLOAD,2024-06-08 05:53:26,15.08849563,9.28e-05,53.2204,354.6679,80.4706,279.6391,0.00019622,2.837e-05,0.0,0 STARLINK-5117,1 54172U 22141R   24160.24544335  .00002837  00000-0  19622-3 0  9995,2 54172  53.2204 354.6679 0000928  80.4706 279.6391 15.08849563 89329,6917.851,95.437,540.358,539.074,0.0
54172.0,STARLINK-5117,PAYLOAD,2024-06-08 21:47:19,15.0883911,0.0003584,53.2308,351.6925,80.1864,279.9533,-3.2003e-05,-7.98e-06,0.0,0 STARLINK-5117,1 54172U 22141R   24160.90786892 -.00000798  00000-0 -32003-4 0  9999,2 54172  53.2308 351.6925 0003584  80.1864 279.9533 15.08839110 89427,6917.883,95.438,542.227,537.269,0.0
54172.0,STARLINK-5117,PAYLOAD,2024-06-08 23:22:43,15.08840961,0.0003971,53.2247,351.3944,77.5306,282.613,-5.9624e-05,-1.238e-05,0.0,0 STARLINK-5117,1 54172U 22141R   24160.97411046 -.00001238  00000-0 -59624-4 0  9990,2 54172  53.2247 351.3944 0003971  77.5306 282.6130 15.08840961 89439,6917.877,95.437,542.49,536.995,0.0
54172.0,STARLINK-5117,PAYLOAD,2024-06-09 05:44:14,15.08856287,0.0002923,53.2303,350.2051,80.6251,279.5072,9.1377e-05,1.167e-05,0.0,0 STARLINK-5117,1 54172U 22141R   24161.23905147  .00001167  00000-0  91377-4 0  9990,2 54172  53.2303 350.2051 0002923  80.6251 279.5072 15.08856287 89471,6917.831,95.437,541.718,537.674,0.0
54172.0,STARLINK-5117,PAYLOAD,2024-06-10 19:53:29,15.08854336,0.0001596,53.2187,343.0723,83.9369,276.1805,5.5102e-05,5.89e-06,0.0,0 STARLINK-5117,1 54172U 22141R   24162.82881684  .00000589  00000-0  55102-4 0  9998,2 54172  53.2187 343.0723 0001596  83.9369 276.1805 15.08854336 89715,6917.837,95.437,540.806,538.597,0.0
54172.0,STARLINK-5117,PAYLOAD,2024-06-11 11:47:21,15.08841069,0.0002991,53.2188,340.0994,80.969,279.164,-4.3696e-05,-9.84e-06,0.0,0 STARLINK-5117,1 54172U 22141R   24163.49122370 -.00000984  00000-0 -43696-4 0  9998,2 54172  53.2188 340.0994 0002991  80.9690 279.1640 15.08841069 89817,6917.877,95.437,541.811,537.673,0.0
54172.0,STARLINK-5117,PAYLOAD,2024-06-12 05:16:35,15.0885216,0.0001337,53.2196,336.8265,91.788,268.3265,3.0734e-05,2.01e-06,0.0,0 STARLINK-5117,1 54172U 22141R   24164.21985454  .00000201  00000-0  30734-4 0  9998,2 54172  53.2196 336.8265 0001337  91.7880 268.3265 15.08852160 89923,6917.843,95.437,540.633,538.783,0.0
54172.0,STARLINK-5117,PAYLOAD,2024-06-12 21:10:27,15.08839623,0.0001476,53.2198,333.8529,113.7179,246.3968,-5.8842e-05,-1.224e-05,0.0,0 STARLINK-5117,1 54172U 22141R   24164.88226350 -.00001224  00000-0 -58842-4 0  9992,2 54172  53.2198 333.8529 0001476 113.7179 246.3968 15.08839623 90023,6917.882,95.438,540.768,538.725,0.0
